QIANFAN-89              
1 63175U 25046S   25258.59157722  .00000148  00000+0  21072-3 0  9996
2 63175  88.9843 329.1439 0016775  28.5332 331.6733 13.50978804 35508
QIANFAN-90              
1 63176U 25046T   25258.54633402  .00000134  00000+0  18946-3 0  9997
2 63176  88.9843 329.1208 0013687  28.6503 331.5398 13.50977706 35510
